SENTINEL-6              
1 46984U 20086A   24216.93605675 -.00000047  00000+0  63009-4 0  9996
2 46984  66.0414 112.0980 0007812 269.9240  90.0880 12.80930172172946
